[{"OBJECT_NAME":"ONEWEB-0315","OBJECT_ID":"2021-075AC","EPOCH":"2026-05-12T01:43:48.163872","MEAN_MOTION":13.12444583,"ECCENTRICITY":0.0002054,"INCLINATION":87.8975,"RA_OF_ASC_NODE":357.8242,"ARG_OF_PERICENTER":92.2138,"MEAN_ANOMALY":267.9226,"EPHEMERIS_TYPE":0,"CLASSIFICATION_TYPE":"U","NORAD_CAT_ID":49101,"ELEMENT_SET_NO":999,"REV_AT_EPOCH":23043,"BSTAR":0.001316,"MEAN_MOTION_DOT":4.86e-06,"MEAN_MOTION_DDOT":0.0},{"OBJECT_NAME":"ONEWEB-0316","OBJECT_ID":"2021-075AD","EPOCH":"2026-05-12T02:49:08.866272","MEAN_MOTION":13.1868485,"ECCENTRICITY":0.0001819,"INCLINATION":87.9171,"RA_OF_ASC_NODE":342.6362,"ARG_OF_PERICENTER":88.3342,"MEAN_ANOMALY":271.7999,"EPHEMERIS_TYPE":0,"CLASSIFICATION_TYPE":"U","NORAD_CAT_ID":49102,"ELEMENT_SET_NO":999,"REV_AT_EPOCH":23245,"BSTAR":0.00016244,"MEAN_MOTION_DOT":7.7e-07,"MEAN_MOTION_DDOT":0.0},{"OBJECT_NAME":"ONEWEB-0317","OBJECT_ID":"2021-075AE","EPOCH":"2026-05-12T01:48:40.893984","MEAN_MOTION":13.12443801,"ECCENTRICITY":0.0001354,"INCLINATION":87.8977,"RA_OF_ASC_NODE":357.8468,"ARG_OF_PERICENTER":60.3833,"MEAN_ANOMALY":299.743,"EPHEMERIS_TYPE":0,"CLASSIFICATION_TYPE":"U","NORAD_CAT_ID":49103,"ELEMENT_SET_NO":999,"REV_AT_EPOCH":23045,"BSTAR":0.0012364000000000001,"MEAN_MOTION_DOT":4.58e-06,"MEAN_MOTION_DDOT":0.0},{"OBJECT_NAME":"ONEWEB-0318","OBJECT_ID":"2021-075AF","EPOCH":"2026-05-12T02:44:17.379456","MEAN_MOTION":13.18684793,"ECCENTRICITY":0.0001971,"INCLINATION":87.9182,"RA_OF_ASC_NODE":342.6353,"ARG_OF_PERICENTER":92.19,"MEAN_ANOMALY":267.9458,"EPHEMERIS_TYPE":0,"CLASSIFICATION_TYPE":"U","NORAD_CAT_ID":49104,"ELEMENT_SET_NO":999,"REV_AT_EPOCH":23241,"BSTAR":0.00011557,"MEAN_MOTION_DOT":5.8e-07,"MEAN_MOTION_DDOT":0.0},{"OBJECT_NAME":"ONEWEB-0319","OBJECT_ID":"2021-075AG","EPOCH":"2026-05-12T04:18:42.905664","MEAN_MOTION":13.17650217,"ECCENTRICITY":0.000222,"INCLINATION":87.9166,"RA_OF_ASC_NODE":13.0265,"ARG_OF_PERICENTER":92.7784,"MEAN_ANOMALY":267.3602,"EPHEMERIS_TYPE":0,"CLASSIFICATION_TYPE":"U","NORAD_CAT_ID":49105,"ELEMENT_SET_NO":999,"REV_AT_EPOCH":22886,"BSTAR":0.00022666,"MEAN_MOTION_DOT":1.01e-06,"MEAN_MOTION_DDOT":0.0},{"OBJECT_NAME":"ONEWEB-0323","OBJECT_ID":"2021-075AH","EPOCH":"2026-05-12T03:11:36.861792","MEAN_MOTION":13.12444038,"ECCENTRICITY":0.0002084,"INCLINATION":87.8977,"RA_OF_ASC_NODE":357.8167,"ARG_OF_PERICENTER":98.2952,"MEAN_ANOMALY":261.8413,"EPHEMERIS_TYPE":0,"CLASSIFICATION_TYPE":"U","NORAD_CAT_ID":49106,"ELEMENT_SET_NO":999,"REV_AT_EPOCH":22982,"BSTAR":-0.00067456,"MEAN_MOTION_DOT":-2.3e-06,"MEAN_MOTION_DDOT":0.0},{"OBJECT_NAME":"ONEWEB-0329","OBJECT_ID":"2021-075AJ","EPOCH":"2026-05-12T04:30:51.714720","MEAN_MOTION":13.17649456,"ECCENTRICITY":0.0001749,"INCLINATION":87.9167,"RA_OF_ASC_NODE":13.0256,"ARG_OF_PERICENTER":87.2427,"MEAN_ANOMALY":272.8904,"EPHEMERIS_TYPE":0,"CLASSIFICATION_TYPE":"U","NORAD_CAT_ID":49107,"ELEMENT_SET_NO":999,"REV_AT_EPOCH":22884,"BSTAR":0.00015722,"MEAN_MOTION_DOT":7.4e-07,"MEAN_MOTION_DDOT":0.0},{"OBJECT_NAME":"ONEWEB-0330","OBJECT_ID":"2021-075AK","EPOCH":"2026-05-12T03:15:44.173152","MEAN_MOTION":13.17648694,"ECCENTRICITY":0.0001591,"INCLINATION":87.9172,"RA_OF_ASC_NODE":13.0555,"ARG_OF_PERICENTER":86.4594,"MEAN_ANOMALY":273.672,"EPHEMERIS_TYPE":0,"CLASSIFICATION_TYPE":"U","NORAD_CAT_ID":49108,"ELEMENT_SET_NO":999,"REV_AT_EPOCH":22887,"BSTAR":0.00025678,"MEAN_MOTION_DOT":1.13e-06,"MEAN_MOTION_DDOT":0.0},{"OBJECT_NAME":"ONEWEB-0292","OBJECT_ID":"2021-083A","EPOCH":"2026-05-12T01:22:37.348608","MEAN_MOTION":13.134719,"ECCENTRICITY":0.0001936,"INCLINATION":87.8934,"RA_OF_ASC_NODE":327.4407,"ARG_OF_PERICENTER":92.692,"MEAN_ANOMALY":267.4431,"EPHEMERIS_TYPE":0,"CLASSIFICATION_TYPE":"U","NORAD_CAT_ID":49186,"ELEMENT_SET_NO":999,"REV_AT_EPOCH":22618,"BSTAR":0.0007322800000000001,"MEAN_MOTION_DOT":2.8e-06,"MEAN_MOTION_DDOT":0.0},{"OBJECT_NAME":"ONEWEB-0303","OBJECT_ID":"2021-083B","EPOCH":"2026-05-12T02:39:26.150112","MEAN_MOTION":13.1868451,"ECCENTRICITY":0.0001896,"INCLINATION":87.9175,"RA_OF_ASC_NODE":342.6365,"ARG_OF_PERICENTER":91.0363,"MEAN_ANOMALY":269.0987,"EPHEMERIS_TYPE":0,"CLASSIFICATION_TYPE":"U","NORAD_CAT_ID":49187,"ELEMENT_SET_NO":999,"REV_AT_EPOCH":22522,"BSTAR":6.365900000000001e-05,"MEAN_MOTION_DOT":3.8e-07,"MEAN_MOTION_DDOT":0.0},{"OBJECT_NAME":"ONEWEB-0306","OBJECT_ID":"2021-083C","EPOCH":"2026-05-12T02:24:52.202016","MEAN_MOTION":13.18684376,"ECCENTRICITY":0.000165,"INCLINATION":87.9181,"RA_OF_ASC_NODE":342.6242,"ARG_OF_PERICENTER":81.6816,"MEAN_ANOMALY":278.4503,"EPHEMERIS_TYPE":0,"CLASSIFICATION_TYPE":"U","NORAD_CAT_ID":49188,"ELEMENT_SET_NO":999,"REV_AT_EPOCH":22526,"BSTAR":9.6897e-05,"MEAN_MOTION_DOT":5.1e-07,"MEAN_MOTION_DDOT":0.0},{"OBJECT_NAME":"ONEWEB-0307","OBJECT_ID":"2021-083D","EPOCH":"2026-05-12T01:14:04.508448","MEAN_MOTION":13.13472022,"ECCENTRICITY":0.000181,"INCLINATION":87.8946,"RA_OF_ASC_NODE":327.4354,"ARG_OF_PERICENTER":93.174,"MEAN_ANOMALY":266.9596,"EPHEMERIS_TYPE":0,"CLASSIFICATION_TYPE":"U","NORAD_CAT_ID":49189,"ELEMENT_SET_NO":999,"REV_AT_EPOCH":22618,"BSTAR":0.00028278,"MEAN_MOTION_DOT":1.16e-06,"MEAN_MOTION_DDOT":0.0},{"OBJECT_NAME":"ONEWEB-0320","OBJECT_ID":"2021-083E","EPOCH":"2026-05-12T06:32:32.749728","MEAN_MOTION":13.18686367,"ECCENTRICITY":0.000175,"INCLINATION":87.9171,"RA_OF_ASC_NODE":342.6119,"ARG_OF_PERICENTER":84.322,"MEAN_ANOMALY":275.8112,"EPHEMERIS_TYPE":0,"CLASSIFICATION_TYPE":"U","NORAD_CAT_ID":49190,"ELEMENT_SET_NO":999,"REV_AT_EPOCH":22524,"BSTAR":3.5777e-05,"MEAN_MOTION_DOT":2.7e-07,"MEAN_MOTION_DDOT":0.0},{"OBJECT_NAME":"ONEWEB-0321","OBJECT_ID":"2021-083F","EPOCH":"2026-05-12T03:22:41.046240","MEAN_MOTION":13.20756193,"ECCENTRICITY":0.000167,"INCLINATION":87.9157,"RA_OF_ASC_NODE":281.6248,"ARG_OF_PERICENTER":90.3298,"MEAN_ANOMALY":269.8027,"EPHEMERIS_TYPE":0,"CLASSIFICATION_TYPE":"U","NORAD_CAT_ID":49191,"ELEMENT_SET_NO":999,"REV_AT_EPOCH":23207,"BSTAR":0.00018159,"MEAN_MOTION_DOT":8.7e-07,"MEAN_MOTION_DDOT":0.0},{"OBJECT_NAME":"ONEWEB-0322","OBJECT_ID":"2021-083G","EPOCH":"2026-05-12T06:37:05.033280","MEAN_MOTION":13.134714,"ECCENTRICITY":0.0001805,"INCLINATION":87.894,"RA_OF_ASC_NODE":327.3925,"ARG_OF_PERICENTER":74.4517,"MEAN_ANOMALY":285.6811,"EPHEMERIS_TYPE":0,"CLASSIFICATION_TYPE":"U","NORAD_CAT_ID":49192,"ELEMENT_SET_NO":999,"REV_AT_EPOCH":22620,"BSTAR":-0.00022386000000000001,"MEAN_MOTION_DOT":-6.9e-07,"MEAN_MOTION_DDOT":0.0},{"OBJECT_NAME":"ONEWEB-0324","OBJECT_ID":"2021-083H","EPOCH":"2026-05-12T02:15:09.879840","MEAN_MOTION":13.18684908,"ECCENTRICITY":0.0001652,"INCLINATION":87.9182,"RA_OF_ASC_NODE":342.6308,"ARG_OF_PERICENTER":88.4157,"MEAN_ANOMALY":271.7164,"EPHEMERIS_TYPE":0,"CLASSIFICATION_TYPE":"U","NORAD_CAT_ID":49193,"ELEMENT_SET_NO":999,"REV_AT_EPOCH":22524,"BSTAR":2.5319000000000003e-05,"MEAN_MOTION_DOT":2.3e-07,"MEAN_MOTION_DDOT":0.0},{"OBJECT_NAME":"ONEWEB-0325","OBJECT_ID":"2021-083J","EPOCH":"2026-05-12T02:20:00.654720","MEAN_MOTION":13.18685254,"ECCENTRICITY":0.0001877,"INCLINATION":87.917,"RA_OF_ASC_NODE":342.642,"ARG_OF_PERICENTER":85.5283,"MEAN_ANOMALY":274.6064,"EPHEMERIS_TYPE":0,"CLASSIFICATION_TYPE":"U","NORAD_CAT_ID":49194,"ELEMENT_SET_NO":999,"REV_AT_EPOCH":22525,"BSTAR":0.00022651,"MEAN_MOTION_DOT":1.02e-06,"MEAN_MOTION_DDOT":0.0},{"OBJECT_NAME":"ONEWEB-0326","OBJECT_ID":"2021-083K","EPOCH":"2026-05-12T02:42:03.668544","MEAN_MOTION":13.1868456,"ECCENTRICITY":0.0002042,"INCLINATION":87.9181,"RA_OF_ASC_NODE":342.6339,"ARG_OF_PERICENTER":91.8571,"MEAN_ANOMALY":268.2795,"EPHEMERIS_TYPE":0,"CLASSIFICATION_TYPE":"U","NORAD_CAT_ID":49195,"ELEMENT_SET_NO":999,"REV_AT_EPOCH":22524,"BSTAR":-3.4986e-05,"MEAN_MOTION_DOT":-1e-08,"MEAN_MOTION_DDOT":0.0},{"OBJECT_NAME":"ONEWEB-0327","OBJECT_ID":"2021-083L","EPOCH":"2026-05-12T02:41:40.014816","MEAN_MOTION":13.18685524,"ECCENTRICITY":0.0002193,"INCLINATION":87.9174,"RA_OF_ASC_NODE":342.6412,"ARG_OF_PERICENTER":90.6276,"MEAN_ANOMALY":269.5108,"EPHEMERIS_TYPE":0,"CLASSIFICATION_TYPE":"U","NORAD_CAT_ID":49196,"ELEMENT_SET_NO":999,"REV_AT_EPOCH":22526,"BSTAR":0.00011121,"MEAN_MOTION_DOT":5.7e-07,"MEAN_MOTION_DDOT":0.0},{"OBJECT_NAME":"ONEWEB-0328","OBJECT_ID":"2021-083M","EPOCH":"2026-05-12T06:22:27.114240","MEAN_MOTION":13.13471437,"ECCENTRICITY":0.0001651,"INCLINATION":87.8953,"RA_OF_ASC_NODE":327.3637,"ARG_OF_PERICENTER":91.9141,"MEAN_ANOMALY":268.2177,"EPHEMERIS_TYPE":0,"CLASSIFICATION_TYPE":"U","NORAD_CAT_ID":49197,"ELEMENT_SET_NO":999,"REV_AT_EPOCH":22618,"BSTAR":-0.00077794,"MEAN_MOTION_DOT":-2.71e-06,"MEAN_MOTION_DDOT":0.0},{"OBJECT_NAME":"ONEWEB-0331","OBJECT_ID":"2021-083N","EPOCH":"2026-05-12T00:42:53.245152","MEAN_MOTION":13.18684473,"ECCENTRICITY":0.0001967,"INCLINATION":87.9182,"RA_OF_ASC_NODE":342.6439,"ARG_OF_PERICENTER":96.4412,"MEAN_ANOMALY":263.6945,"EPHEMERIS_TYPE":0,"CLASSIFICATION_TYPE":"U","NORAD_CAT_ID":49198,"ELEMENT_SET_NO":999,"REV_AT_EPOCH":22524,"BSTAR":3.5872e-05,"MEAN_MOTION_DOT":2.7e-07,"MEAN_MOTION_DDOT":0.0},{"OBJECT_NAME":"ONEWEB-0333","OBJECT_ID":"2021-083P","EPOCH":"2026-05-12T06:15:07.587936","MEAN_MOTION":13.1347141,"ECCENTRICITY":0.0001838,"INCLINATION":87.8946,"RA_OF_ASC_NODE":327.3942,"ARG_OF_PERICENTER":88.2852,"MEAN_ANOMALY":271.8488,"EPHEMERIS_TYPE":0,"CLASSIFICATION_TYPE":"U","NORAD_CAT_ID":49199,"ELEMENT_SET_NO":999,"REV_AT_EPOCH":22619,"BSTAR":-0.00092523,"MEAN_MOTION_DOT":-3.25e-06,"MEAN_MOTION_DDOT":0.0},{"OBJECT_NAME":"ONEWEB-0334","OBJECT_ID":"2021-083Q","EPOCH":"2026-05-12T03:47:57.415488","MEAN_MOTION":13.20717886,"ECCENTRICITY":0.0001736,"INCLINATION":87.9154,"RA_OF_ASC_NODE":281.6341,"ARG_OF_PERICENTER":67.3436,"MEAN_ANOMALY":292.788,"EPHEMERIS_TYPE":0,"CLASSIFICATION_TYPE":"U","NORAD_CAT_ID":49200,"ELEMENT_SET_NO":999,"REV_AT_EPOCH":23203,"BSTAR":-0.00018429,"MEAN_MOTION_DOT":-6.2e-07,"MEAN_MOTION_DDOT":0.0}]